0 METEOR 2-5 DEB
1 36885U 79095AA  13281.37777335  .00013904  00000-0  23073-2 0  1533
2 36885 081.1817 157.6646 0004478 290.0526 071.9712 14.70116488465530
0 METEOR 2-5 DEB
1 36885U 79095AA  13282.94280368  .00036144  00000-0  59665-2 0  1540
2 36885 081.1752 155.9664 0007074 320.2250 039.9506 14.70221994465763
0 METEOR 2-5 DEB
1 36885U 79095AA  13283.96361180  .00026253  00000-0  43357-2 0  1557
2 36885 081.1749 154.8619 0006809 316.1940 043.7830 14.70261032465919
0 METEOR 2-5 DEB
1 36885U 79095AA  13286.34549461  .00019616  00000-0  32364-2 0  1575
2 36885 081.1746 152.2913 0006250 326.9256 033.0801 14.70340897466260
0 METEOR 2-5 DEB
1 36885U 79095AA  13287.29821677  .00019074  00000-0  31449-2 0  1584
2 36885 081.1765 151.2643 0005569 325.6903 034.3684 14.70373982466407
0 METEOR 2-5 DEB
1 36885U 79095AA  13291.31295650  .00021378  00000-0  35087-2 0  1591
2 36885 081.1828 146.9208 0007447 273.9873 086.4280 14.70557262466992
0 METEOR 2-5 DEB
1 36885U 79095AA  13294.30657950  .00021738  00000-0  35565-2 0  1601
2 36885 081.1812 143.6814 0008334 266.2353 093.8730 14.70690438467431
